API VERSION: 1.2
API SOURCE: NASA/JPL Horizons API



*******************************************************************************
Ephemeris / API_USER Wed Apr 15 12:08:42 2026 Pasadena, USA      / Horizons
*******************************************************************************
Target body name: Mercury (199)                   {source: DE441}
Center body name: Earth (399)                     {source: DE441}
Center-site name: BODY CENTER
*******************************************************************************
Start time      : A.D. 2025-Jan-08 06:36:59.9999 TDB
Stop  time      : A.D. 2025-Jan-10 06:36:59.9999 TDB
Step-size       : 60 minutes
*******************************************************************************
Center geodetic : 0.0, 0.0, 0.0                   {E-lon(deg),Lat(deg),Alt(km)}
Center cylindric: 0.0, 0.0, 0.0                   {E-lon(deg),Dxy(km),Dz(km)}
Center radii    : 6378.137, 6378.137, 6356.752 km {Equator_a, b, pole_c}
Output units    : AU-D
Calendar mode   : Mixed Julian/Gregorian
Output type     : GEOMETRIC cartesian states
Output format   : 3 (position, velocity, LT, range, range-rate)
EOP file        : eop.260414.p260711
EOP coverage    : DATA-BASED 1962-JAN-20 TO 2026-APR-14. PREDICTS-> 2026-JUL-10
Reference frame : Ecliptic of J2000.0
*******************************************************************************
            JDTDB,            Calendar Date (TDB),                      X,                      Y,                      Z,                     VX,                     VY,                     VZ,                     LT,                     RG,                     RR,
**************************************************************************************************************************************************************************************************************************************************************************
$$SOE
2460685.025694443, A.D. 2025-Jan-09 12:36:59.9999,  2.695754713005744E-02, -1.271629596947065E+00, -8.240845834842879E-04,  3.211485603066418E-02, -1.136901353937754E-02, -2.825981155036436E-03,  7.345971697581593E-03,  1.271915571213131E+00,  1.204894494897343E-02,
2460685.067361110, A.D. 2025-Jan-09 13:36:59.9999,  2.829639605819657E-02, -1.272102106940711E+00, -9.418313847205710E-04,  3.214987177564385E-02, -1.131145677468171E-02, -2.825862719692482E-03,  7.348868438764850E-03,  1.272417126401258E+00,  1.202570656220336E-02,
2460685.109027776, A.D. 2025-Jan-09 14:36:59.9999,  2.963670138314381E-02, -1.272572217564760E+00, -1.059572928235890E-03,  3.218476308897009E-02, -1.125384383589149E-02, -2.825728788306759E-03,  7.351759589499823E-03,  1.272917713633271E+00,  1.200248305229513E-02,
2460685.150694443, A.D. 2025-Jan-09 15:36:59.9999,  3.097845792168447E-02, -1.273039926483263E+00, -1.177308568846301E-03,  3.221953003960086E-02, -1.119617494550350E-02, -2.825579384124445E-03,  7.354645153364260E-03,  1.273417333528637E+00,  1.197927439989852E-02,
2460685.192361110, A.D. 2025-Jan-09 16:36:59.9999,  3.232166049347200E-02, -1.273505231369523E+00, -1.295037662334560E-03,  3.225417269625096E-02, -1.113845032502680E-02, -2.825414530294417E-03,  7.357525133931201E-03,  1.273915986706009E+00,  1.195608058524243E-02,
2460685.234027776, A.D. 2025-Jan-09 17:36:59.9999,  3.366630392101780E-02, -1.273968129906050E+00, -1.412759565445933E-03,  3.228869112738863E-02, -1.108067019498861E-02, -2.825234249869485E-03,  7.360399534768877E-03,  1.274413673783207E+00,  1.193290158813847E-02,
2460685.275694443, A.D. 2025-Jan-09 18:36:59.9999,  3.501238302968098E-02, -1.274428619784522E+00, -1.530473635884117E-03,  3.232308540123201E-02, -1.102283477493999E-02, -2.825038565806641E-03,  7.363268359440611E-03,  1.274910395377201E+00,  1.190973738798450E-02,
2460685.317361110, A.D. 2025-Jan-09 19:36:59.9999,  3.635989264765770E-02, -1.274886698705748E+00, -1.648179232307851E-03,  3.235735558574577E-02, -1.096494428346153E-02, -2.824827500967231E-03,  7.366131611504716E-03,  1.275406152104094E+00,  1.188658796376823E-02,
2460685.359027776, A.D. 2025-Jan-09 20:36:59.9999,  3.770882760597070E-02, -1.275342364379620E+00, -1.765875714325837E-03,  3.239150174863772E-02, -1.090699893816903E-02, -2.824601078117270E-03,  7.368989294514401E-03,  1.275900944579105E+00,  1.186345329407067E-02,
2460685.400694443, A.D. 2025-Jan-09 21:36:59.9999,  3.905918273845860E-02, -1.275795614525080E+00, -1.883562442493652E-03,  3.242552395735545E-02, -1.084899895571922E-02, -2.824359319927595E-03,  7.371841412017676E-03,  1.276394773416554E+00,  1.184033335706974E-02,
2460685.442361110, A.D. 2025-Jan-09 22:36:59.9999,  4.041095288176451E-02, -1.276246446870076E+00, -2.001238778309363E-03,  3.245942227908302E-02, -1.079094455181547E-02, -2.824102248974156E-03,  7.374687967557249E-03,  1.276887639229840E+00,  1.181722813054368E-02,
2460685.484027776, A.D. 2025-Jan-09 23:36:59.9999,  4.176413287532568E-02, -1.276694859151527E+00, -2.118904084209845E-03,  3.249319678073771E-02, -1.073283594121343E-02, -2.823829887738227E-03,  7.377528964670433E-03,  1.277379542631431E+00,  1.179413759187465E-02,
2460685.525694443, A.D. 2025-Jan-10 00:36:59.9999,  4.311871756136184E-02, -1.277140849115277E+00, -2.236557723566697E-03,  3.252684752896677E-02, -1.067467333772677E-02, -2.823542258606656E-03,  7.380364406889046E-03,  1.277870484232842E+00,  1.177106171805208E-02,
2460685.567361110, A.D. 2025-Jan-10 01:36:59.9999,  4.447470178486403E-02, -1.277584414516060E+00, -2.354199060682551E-03,  3.256037459014422E-02, -1.061645695423287E-02, -2.823239383872112E-03,  7.383194297739331E-03,  1.278360464644622E+00,  1.174800048567621E-02,
2460685.609027776, A.D. 2025-Jan-10 02:36:59.9999,  4.583208039358301E-02, -1.278025553117462E+00, -2.471827460786696E-03,  3.259377803036768E-02, -1.055818700267849E-02, -2.822921285733318E-03,  7.386018640741840E-03,  1.278849484476338E+00,  1.172495387096146E-02,
2460685.650694443, A.D. 2025-Jan-10 03:36:59.9999,  4.719084823801786E-02, -1.278464262691881E+00, -2.589442290031291E-03,  3.262705791545531E-02, -1.049986369408551E-02, -2.822587986295303E-03,  7.388837439411371E-03,  1.279337544336556E+00,  1.170192184973994E-02,
2460685.692361110, A.D. 2025-Jan-10 04:36:59.9999,  4.855100017140443E-02, -1.278900541020485E+00, -2.707042915487876E-03,  3.266021431094265E-02, -1.044148723855656E-02, -2.822239507569655E-03,  7.391650697256849E-03,  1.279824644832830E+00,  1.167890439746478E-02,
2460685.734027776, A.D. 2025-Jan-10 05:36:59.9999,  4.991253104970278E-02, -1.279334385893181E+00, -2.824628705142991E-03,  3.269324728207962E-02, -1.038305784528077E-02, -2.821875871474765E-03,  7.394458417781251E-03,  1.280310786571679E+00,  1.165590148921353E-02,
2460685.775694443, A.D. 2025-Jan-10 06:36:59.9999,  5.127543573158628E-02, -1.279765795108571E+00, -2.942199027894890E-03,  3.272615689382749E-02, -1.032457572253946E-02, -2.821497099836080E-03,  7.397260604481509E-03,  1.280795970158580E+00,  1.163291309969161E-02,
